1 45413U 20019BF  23337.19778808  .00017256  00000-0  11755-2 0  9997
2 45413  53.0557 251.3750 0001236  62.9513 297.1602 15.06368222205239
1 45413U 20019BF  23337.19778808  .00017256  00000-0  11755-2 0  9997
2 45413  53.0557 251.3750 0001236  62.9513 297.1602 15.06368222205239
1 45413U 20019BF  23338.06028339  .00017233  00000-0  11719-2 0  9996
2 45413  53.0555 247.5138 0001515  76.5315 283.5843 15.06433976205364
1 45413U 20019BF  23338.06028339  .00017233  00000-0  11719-2 0  9996
2 45413  53.0555 247.5138 0001515  76.5315 283.5843 15.06433976205364
1 45413U 20019BF  23339.12182935  .00005705  00000-0  40147-3 0  9996
2 45413  53.0539 242.7411 0001555  81.6804 278.4361 15.06410260205528
1 45413U 20019BF  23339.12182935  .00005705  00000-0  40147-3 0  9996
2 45413  53.0539 242.7411 0001555  81.6804 278.4361 15.06410260205528
1 45413U 20019BF  23340.11702140  .00008393  00000-0  58135-3 0  9995
2 45413  53.0541 238.2718 0001532  83.8253 276.2910 15.06421945205672
1 45413U 20019BF  23340.97953664 -.00000982  00000-0 -47046-4 0  9996
2 45413  53.0543 234.4009 0001325  93.9854 266.1287 15.06396668205807
1 45413U 20019BF  23340.97953664 -.00000982  00000-0 -47046-4 0  9996
2 45413  53.0543 234.4009 0001325  93.9854 266.1287 15.06396668205807
1 45413U 20019BF  23341.70937044 -.00001981  00000-0 -11420-3 0  9998
2 45413  53.0553 231.1227 0001577  80.3602 279.7565 15.06367580205916
1 45413U 20019BF  23342.10745279  .00004258  00000-0  30469-3 0  9992
2 45413  53.0558 229.3339 0002341  93.4882 266.6375 15.06386092205978
1 45413U 20019BF  23342.10745279  .00004258  00000-0  30469-3 0  9992
2 45413  53.0558 229.3339 0002341  93.4882 266.6375 15.06386092205978
1 45413U 20019BF  23343.69976747  .00005742  00000-0  40392-3 0  9998
2 45413  53.0551 222.1885 0002238 101.3928 258.7313 15.06416600206214
1 45413U 20019BF  23343.69976747  .00005742  00000-0  40392-3 0  9998
2 45413  53.0551 222.1885 0002238 101.3928 258.7313 15.06416600206214
1 45413U 20019BF  23344.03149873  .00003010  00000-0  22080-3 0  9999
2 45413  53.0546 220.6998 0001805  86.7851 273.3345 15.06414755206268
1 45413U 20019BF  23344.03149873  .00003010  00000-0  22080-3 0  9999
2 45413  53.0546 220.6998 0001805  86.7851 273.3345 15.06414755206268
1 45413U 20019BF  23344.82765879  .00000904  00000-0  79587-4 0  9990
2 45413  53.0540 217.1258 0001573 104.9210 255.1953 15.06401910206381
1 45413U 20019BF  23344.89400589  .00001808  00000-0  14025-3 0  9990
2 45413  53.0539 216.8279 0001661 104.5243 255.5930 15.06401215206396
1 45413U 20019BF  23344.96035015 -.00006429  00000-0 -41301-3 0  9999
2 45413  53.0520 216.5287 0001184 113.9845 246.1268 15.06405840206404
1 45413U 20019BF  23345.82286706  .00002788  00000-0  20603-3 0  9994
2 45413  53.0523 212.6572 0001287  99.8326 260.2808 15.06395342206537
1 45413U 20019BF  23345.88921637  .00004529  00000-0  32279-3 0  9996
2 45413  53.0528 212.3589 0001480  91.9459 268.1700 15.06393050206545
1 45413U 20019BF  23345.95557551  .00014201  00000-0  97094-3 0  9998
2 45413  53.0545 212.0628 0002002  70.3090 289.8115 15.06377315206555
1 45413U 20019BF  23345.95557551  .00014201  00000-0  97094-3 0  9998
2 45413  53.0545 212.0628 0002002  70.3090 289.8115 15.06377315206555
1 45413U 20019BF  23346.81807190  .00003027  00000-0  22205-3 0  9997
2 45413  53.0537 208.1920 0001425  82.4504 277.6647 15.06399408206685
1 45413U 20019BF  23346.88441833  .00003528  00000-0  25562-3 0  9997
2 45413  53.0538 207.8928 0001469  79.7709 280.3446 15.06401445206698
1 45413U 20019BF  23347.87961668  .00003155  00000-0  23058-3 0  9994
2 45413  53.0533 203.4279 0001444  85.5950 274.5204 15.06406828206844
1 45413U 20019BF  23347.87961668  .00003155  00000-0  23058-3 0  9994
2 45413  53.0533 203.4279 0001444  85.5950 274.5204 15.06406828206844
1 45413U 20019BF  23348.80847304  .00000929  00000-0  81222-4 0  9992
2 45413  53.0544 199.2591 0001545  88.1716 271.9450 15.06402180206982
1 45413U 20019BF  23348.80847304  .00000929  00000-0  81222-4 0  9992
2 45413  53.0544 199.2591 0001545  88.1716 271.9450 15.06402180206982
1 45413U 20019BF  23349.87001782  .00001210  00000-0  10009-3 0  9990
2 45413  53.0540 194.4877 0001576  85.7364 274.3805 15.06403691207146
1 45413U 20019BF  23349.87001782  .00001210  00000-0  10009-3 0  9990
2 45413  53.0540 194.4877 0001576  85.7364 274.3805 15.06403691207146
1 45413U 20019BF  23350.79887530  .00000024  00000-0  20485-4 0  9998
2 45413  53.0536 190.3170 0001598 102.3556 257.7611 15.06396947207285
1 45413U 20019BF  23350.79887530  .00000024  00000-0  20485-4 0  9998
2 45413  53.0536 190.3170 0001598 102.3556 257.7611 15.06396947207285
1 45413U 20019BF  23351.79407425  .00001388  00000-0  11202-3 0  9990
2 45413  53.0541 185.8494 0001602 107.0456 253.0708 15.06403595207437
1 45413U 20019BF  23351.79407425  .00001388  00000-0  11202-3 0  9990
2 45413  53.0541 185.8494 0001602 107.0456 253.0708 15.06403595207437
1 45413U 20019BF  23352.78928788 -.00000828  00000-0 -36675-4 0  9992
2 45413  53.0535 181.3803 0001686 124.9099 235.2049 15.06387946207585
1 45413U 20019BF  23352.85563784 -.00001083  00000-0 -53853-4 0  9992
2 45413  53.0532 181.0832 0001407 103.5510 256.5636 15.06385578207591
1 45413U 20019BF  23353.78450422  .00000132  00000-0  27742-4 0  9999
2 45413  53.0530 176.9163 0001357  92.5149 267.5995 15.06383866207732
1 45413U 20019BF  23354.77970195  .00007093  00000-0  49450-3 0  9995
2 45413  53.0537 172.4474 0001409  81.3298 278.7851 15.06406671207885
1 45413U 20019BF  23354.77970195  .00007093  00000-0  49450-3 0  9995
2 45413  53.0537 172.4474 0001409  81.3298 278.7851 15.06406671207885
1 45413U 20019BF  23355.77488541  .00008329  00000-0  57689-3 0  9991
2 45413  53.0541 167.9783 0001363  82.7210 277.3934 15.06432174208032
1 45413U 20019BF  23355.77488541  .00008329  00000-0  57689-3 0  9991
2 45413  53.0541 167.9783 0001363  82.7210 277.3934 15.06432174208032
1 45413U 20019BF  23356.70373767 -.00002364  00000-0 -13986-3 0  9995
2 45413  53.0541 163.8077 0001261  97.2106 262.9026 15.06407770208176
1 45413U 20019BF  23356.70373767 -.00002364  00000-0 -13986-3 0  9995
2 45413  53.0541 163.8077 0001261  97.2106 262.9026 15.06407770208176
1 45413U 20019BF  23357.76528818  .00000075  00000-0  23940-4 0  9998
2 45413  53.0536 159.0423 0001217  96.4864 263.6264 15.06403343208337
1 45413U 20019BF  23357.83163360  .00000474  00000-0  50677-4 0  9993
2 45413  53.0537 158.7432 0001257 103.0533 257.0597 15.06405491208349
1 45413U 20019BF  23358.42876386  .00001708  00000-0  13352-3 0  9997
2 45413  53.0537 156.0675 0001388  88.1641 271.9507 15.06394224208434
1 45413U 20019BF  23358.42876386  .00001708  00000-0  13352-3 0  9997
2 45413  53.0537 156.0675 0001388  88.1641 271.9507 15.06394224208434
1 45413U 20019BF  23358.76049769  .00002501  00000-0  18672-3 0  9993
2 45413  53.0531 154.5767 0001231 102.3314 257.7813 15.06396782208484
1 45413U 20019BF  23359.62300547  .00003872  00000-0  27863-3 0  9997
2 45413  53.0532 150.7055 0001222  94.1228 265.9901 15.06404526208615
1 45413U 20019BF  23359.68935213  .00004295  00000-0  30703-3 0  9994
2 45413  53.0537 150.4080 0001242  92.7266 267.3865 15.06405632208628
1 45413U 20019BF  23359.68935213  .00004295  00000-0  30703-3 0  9994
2 45413  53.0537 150.4080 0001242  92.7266 267.3865 15.06405632208628
1 45413U 20019BF  23360.61821513  .00000366  00000-0  43451-4 0  9996
2 45413  53.0533 146.2383 0001245  91.3669 268.7463 15.06392419208760
1 45413U 20019BF  23360.81725667  .00000421  00000-0  47171-4 0  9996
2 45413  53.0536 145.3447 0001213  94.6062 265.5066 15.06392645208790
1 45413U 20019BF  23360.81725667  .00000421  00000-0  47171-4 0  9996
2 45413  53.0536 145.3447 0001213  94.6062 265.5066 15.06392645208790
1 45413U 20019BF  23361.61341870  .00001399  00000-0  11279-3 0  9999
2 45413  53.0538 141.7719 0001245  96.1018 264.0113 15.06396661208910
1 45413U 20019BF  23361.81245662  .00001172  00000-0  97586-4 0  9998
2 45413  53.0543 140.8780 0001167  87.3126 272.7996 15.06400158208944
1 45413U 20019BF  23362.40958632  .00001325  00000-0  10787-3 0  9999
2 45413  53.0550 138.1955 0001188  83.4200 276.6924 15.06390403209035
1 45413U 20019BF  23362.60862743  .00001307  00000-0  10665-3 0  9993
2 45413  53.0553 137.3019 0001195  86.7878 273.3248 15.06390885209065
1 45413U 20019BF  23362.67497477  .00001254  00000-0  10309-3 0  9994
2 45413  53.0552 137.0041 0001190  84.9896 275.1229 15.06390868209072
1 45413U 20019BF  23363.60382520  .00001028  00000-0  87923-4 0  9996
2 45413  53.0555 132.8350 0001185  92.8071 267.3054 15.06400852209218
1 45413U 20019BF  23363.60382520  .00001028  00000-0  87923-4 0  9996
2 45413  53.0555 132.8350 0001185  92.8071 267.3054 15.06400852209218
1 45413U 20019BF  23364.59903557  .00000835  00000-0  74937-4 0  9990
2 45413  53.0555 128.3663 0001241  83.8184 276.2946 15.06393635209368
1 45413U 20019BF  23364.73172900  .00000992  00000-0  85505-4 0  9993
2 45413  53.0556 127.7720 0001208  87.2160 272.8967 15.06394740209386
1 45413U 20019BF  23364.73172900  .00000992  00000-0  85505-4 0  9993
2 45413  53.0556 127.7720 0001208  87.2160 272.8967 15.06394740209386
